[{"OBJECT_NAME":"COSMOS 2251 DEB","OBJECT_ID":"1993-036AZN","EPOCH":"2026-03-27T16:05:19.577472","MEAN_MOTION":14.75246704,"ECCENTRICITY":0.01355736,"INCLINATION":73.9699,"RA_OF_ASC_NODE":308.8997,"ARG_OF_PERICENTER":98.9068,"MEAN_ANOMALY":262.7482,"EPHEMERIS_TYPE":0,"CLASSIFICATION_TYPE":"U","NORAD_CAT_ID":36385,"ELEMENT_SET_NO":999,"REV_AT_EPOCH":86648,"BSTAR":0.001571058,"MEAN_MOTION_DOT":0.00012333,"MEAN_MOTION_DDOT":0},{"OBJECT_NAME":"COSMOS 2251 DEB","OBJECT_ID":"1993-036AZT","EPOCH":"2026-03-26T06:46:23.407104","MEAN_MOTION":14.37005371,"ECCENTRICITY":0.0017807,"INCLINATION":74.0347,"RA_OF_ASC_NODE":85.1205,"ARG_OF_PERICENTER":156.2158,"MEAN_ANOMALY":221.9838,"EPHEMERIS_TYPE":0,"CLASSIFICATION_TYPE":"U","NORAD_CAT_ID":36420,"ELEMENT_SET_NO":999,"REV_AT_EPOCH":86524,"BSTAR":0.00012353,"MEAN_MOTION_DOT":3.41e-6,"MEAN_MOTION_DDOT":0},{"OBJECT_NAME":"COSMOS 2251 DEB","OBJECT_ID":"1993-036BAD","EPOCH":"2026-03-24T19:52:09.156000","MEAN_MOTION":14.28025131,"ECCENTRICITY":0.00960409,"INCLINATION":74.002,"RA_OF_ASC_NODE":283.1787,"ARG_OF_PERICENTER":49.3113,"MEAN_ANOMALY":311.633,"EPHEMERIS_TYPE":0,"CLASSIFICATION_TYPE":"U","NORAD_CAT_ID":36430,"ELEMENT_SET_NO":999,"REV_AT_EPOCH":66014,"BSTAR":0.00030998813,"MEAN_MOTION_DOT":7.83e-6,"MEAN_MOTION_DDOT":0},{"OBJECT_NAME":"COSMOS 2251 DEB","OBJECT_ID":"1993-036BAL","EPOCH":"2026-03-24T00:39:01.406304","MEAN_MOTION":14.72925153,"ECCENTRICITY":0.00206613,"INCLINATION":73.9414,"RA_OF_ASC_NODE":195.9114,"ARG_OF_PERICENTER":33.0338,"MEAN_ANOMALY":327.212,"EPHEMERIS_TYPE":0,"CLASSIFICATION_TYPE":"U","NORAD_CAT_ID":36437,"ELEMENT_SET_NO":999,"REV_AT_EPOCH":67541,"BSTAR":0.0014909993,"MEAN_MOTION_DOT":9.574e-5,"MEAN_MOTION_DDOT":0},{"OBJECT_NAME":"COSMOS 2251 DEB","OBJECT_ID":"1993-036BAN","EPOCH":"2026-03-25T16:40:41.847456","MEAN_MOTION":13.48169414,"ECCENTRICITY":0.04264038,"INCLINATION":73.9684,"RA_OF_ASC_NODE":232.3362,"ARG_OF_PERICENTER":184.4217,"MEAN_ANOMALY":175.3076,"EPHEMERIS_TYPE":0,"CLASSIFICATION_TYPE":"U","NORAD_CAT_ID":36439,"ELEMENT_SET_NO":999,"REV_AT_EPOCH":60000,"BSTAR":0.0017793351,"MEAN_MOTION_DOT":1.903e-5,"MEAN_MOTION_DDOT":0},{"OBJECT_NAME":"COSMOS 2251 DEB","OBJECT_ID":"1993-036BAQ","EPOCH":"2026-03-20T11:05:07.336608","MEAN_MOTION":15.08819493,"ECCENTRICITY":0.0107373,"INCLINATION":73.8339,"RA_OF_ASC_NODE":146.1973,"ARG_OF_PERICENTER":226.1165,"MEAN_ANOMALY":133.1122,"EPHEMERIS_TYPE":0,"CLASSIFICATION_TYPE":"U","NORAD_CAT_ID":36441,"ELEMENT_SET_NO":999,"REV_AT_EPOCH":88438,"BSTAR":0.00035476168,"MEAN_MOTION_DOT":6.342e-5,"MEAN_MOTION_DDOT":0},{"OBJECT_NAME":"COSMOS 2251 DEB","OBJECT_ID":"1993-036BBA","EPOCH":"2026-03-25T03:55:05.918016","MEAN_MOTION":14.19171907,"ECCENTRICITY":0.01859878,"INCLINATION":73.9541,"RA_OF_ASC_NODE":151.3074,"ARG_OF_PERICENTER":312.216,"MEAN_ANOMALY":46.3323,"EPHEMERIS_TYPE":0,"CLASSIFICATION_TYPE":"U","NORAD_CAT_ID":36451,"ELEMENT_SET_NO":999,"REV_AT_EPOCH":85678,"BSTAR":0.00071711563,"MEAN_MOTION_DOT":1.756e-5,"MEAN_MOTION_DDOT":0},{"OBJECT_NAME":"COSMOS 2251 DEB","OBJECT_ID":"1993-036BBC","EPOCH":"2026-03-27T01:52:54.439104","MEAN_MOTION":14.53511832,"ECCENTRICITY":0.00708998,"INCLINATION":73.9245,"RA_OF_ASC_NODE":314.1223,"ARG_OF_PERICENTER":194.763,"MEAN_ANOMALY":316.7727,"EPHEMERIS_TYPE":0,"CLASSIFICATION_TYPE":"U","NORAD_CAT_ID":36453,"ELEMENT_SET_NO":999,"REV_AT_EPOCH":85983,"BSTAR":0.00065580458,"MEAN_MOTION_DOT":2.798e-5,"MEAN_MOTION_DDOT":0},{"OBJECT_NAME":"COSMOS 2251 DEB","OBJECT_ID":"1993-036BBJ","EPOCH":"2026-03-28T11:48:49.887648","MEAN_MOTION":14.27274518,"ECCENTRICITY":0.01174816,"INCLINATION":74.0461,"RA_OF_ASC_NODE":168.5998,"ARG_OF_PERICENTER":239.7035,"MEAN_ANOMALY":119.2449,"EPHEMERIS_TYPE":0,"CLASSIFICATION_TYPE":"U","NORAD_CAT_ID":36459,"ELEMENT_SET_NO":999,"REV_AT_EPOCH":9390,"BSTAR":0.0016727373,"MEAN_MOTION_DOT":4.379e-5,"MEAN_MOTION_DDOT":0},{"OBJECT_NAME":"COSMOS 2251 DEB","OBJECT_ID":"1993-036BBV","EPOCH":"2026-03-28T13:58:31.320480","MEAN_MOTION":15.23098567,"ECCENTRICITY":0.00263505,"INCLINATION":73.8332,"RA_OF_ASC_NODE":31.7981,"ARG_OF_PERICENTER":203.1316,"MEAN_ANOMALY":156.8699,"EPHEMERIS_TYPE":0,"CLASSIFICATION_TYPE":"U","NORAD_CAT_ID":36470,"ELEMENT_SET_NO":999,"REV_AT_EPOCH":67696,"BSTAR":0.0048614714,"MEAN_MOTION_DOT":0.00117593,"MEAN_MOTION_DDOT":0},{"OBJECT_NAME":"COSMOS 2251 DEB","OBJECT_ID":"1993-036BCT","EPOCH":"2026-03-27T18:50:25.202688","MEAN_MOTION":14.5019273,"ECCENTRICITY":0.00474182,"INCLINATION":74.0092,"RA_OF_ASC_NODE":277.2609,"ARG_OF_PERICENTER":40.2134,"MEAN_ANOMALY":320.2518,"EPHEMERIS_TYPE":0,"CLASSIFICATION_TYPE":"U","NORAD_CAT_ID":36533,"ELEMENT_SET_NO":999,"REV_AT_EPOCH":86007,"BSTAR":0.00031294164,"MEAN_MOTION_DOT":1.206e-5,"MEAN_MOTION_DDOT":0},{"OBJECT_NAME":"COSMOS 2251 DEB","OBJECT_ID":"1993-036BCZ","EPOCH":"2026-03-28T15:02:46.386528","MEAN_MOTION":14.60060692,"ECCENTRICITY":0.00279204,"INCLINATION":74.0225,"RA_OF_ASC_NODE":213.0548,"ARG_OF_PERICENTER":326.5198,"MEAN_ANOMALY":33.4201,"EPHEMERIS_TYPE":0,"CLASSIFICATION_TYPE":"U","NORAD_CAT_ID":36539,"ELEMENT_SET_NO":999,"REV_AT_EPOCH":85492,"BSTAR":0.00064871444,"MEAN_MOTION_DOT":3.105e-5,"MEAN_MOTION_DDOT":0},{"OBJECT_NAME":"COSMOS 2251 DEB","OBJECT_ID":"1993-036BDA","EPOCH":"2026-03-28T02:59:26.022336","MEAN_MOTION":14.59774705,"ECCENTRICITY":0.00123474,"INCLINATION":74.0306,"RA_OF_ASC_NODE":339.602,"ARG_OF_PERICENTER":26.1109,"MEAN_ANOMALY":334.0677,"EPHEMERIS_TYPE":0,"CLASSIFICATION_TYPE":"U","NORAD_CAT_ID":36540,"ELEMENT_SET_NO":999,"REV_AT_EPOCH":87547,"BSTAR":0.00084825022,"MEAN_MOTION_DOT":4.028e-5,"MEAN_MOTION_DDOT":0},{"OBJECT_NAME":"COSMOS 2251 DEB","OBJECT_ID":"1993-036BDL","EPOCH":"2026-03-16T04:51:23.206752","MEAN_MOTION":14.27571581,"ECCENTRICITY":0.00753135,"INCLINATION":74.0465,"RA_OF_ASC_NODE":23.6222,"ARG_OF_PERICENTER":51.5427,"MEAN_ANOMALY":309.2447,"EPHEMERIS_TYPE":0,"CLASSIFICATION_TYPE":"U","NORAD_CAT_ID":36550,"ELEMENT_SET_NO":999,"REV_AT_EPOCH":85929,"BSTAR":0.00071657375,"MEAN_MOTION_DOT":1.792e-5,"MEAN_MOTION_DDOT":0},{"OBJECT_NAME":"COSMOS 2251 DEB","OBJECT_ID":"1993-036BDM","EPOCH":"2026-03-28T10:52:29.229312","MEAN_MOTION":15.08220695,"ECCENTRICITY":0.00390774,"INCLINATION":73.8826,"RA_OF_ASC_NODE":156.145,"ARG_OF_PERICENTER":77.4267,"MEAN_ANOMALY":283.129,"EPHEMERIS_TYPE":0,"CLASSIFICATION_TYPE":"U","NORAD_CAT_ID":36551,"ELEMENT_SET_NO":999,"REV_AT_EPOCH":68522,"BSTAR":0.0016071373,"MEAN_MOTION_DOT":0.0002537,"MEAN_MOTION_DDOT":0},{"OBJECT_NAME":"COSMOS 2251 DEB","OBJECT_ID":"1993-036BDT","EPOCH":"2026-03-25T06:15:01.525248","MEAN_MOTION":14.83116813,"ECCENTRICITY":0.0019482,"INCLINATION":73.9787,"RA_OF_ASC_NODE":283.3718,"ARG_OF_PERICENTER":56.3454,"MEAN_ANOMALY":303.9579,"EPHEMERIS_TYPE":0,"CLASSIFICATION_TYPE":"U","NORAD_CAT_ID":36557,"ELEMENT_SET_NO":999,"REV_AT_EPOCH":35414,"BSTAR":0.0025363,"MEAN_MOTION_DOT":0.00020771,"MEAN_MOTION_DDOT":0}]
