COSMOS 2251 DEB         
1 36385U 93036AZN 26086.67036548  .00012333  00000+0  15711-2 0  9995
2 36385  73.9699 308.8997 0135573  98.9068 262.7482 14.75246704866481
COSMOS 2251 DEB         
1 36420U 93036AZT 26085.28221536  .00000341  00000+0  12353-3 0  9990
2 36420  74.0347  85.1205 0017807 156.2158 221.9838 14.37005371865243
COSMOS 2251 DEB         
1 36430U 93036BAD 26083.82788375  .00000783  00000+0  30999-3 0  9994
2 36430  74.0020 283.1787 0096040  49.3113 311.6330 14.28025131660148
COSMOS 2251 DEB         
1 36437U 93036BAL 26083.02709961  .00009574  00000+0  14910-2 0  9998
2 36437  73.9414 195.9114 0020661  33.0338 327.2120 14.72925153675417
COSMOS 2251 DEB         
1 36439U 93036BAN 26084.69492879  .00001903  00000+0  17793-2 0  9991
2 36439  73.9684 232.3362 0426403 184.4217 175.3076 13.48169414600007
COSMOS 2251 DEB         
1 36441U 93036BAQ 26079.46189047  .00006342  00000+0  35476-3 0  9994
2 36441  73.8339 146.1973 0107373 226.1165 133.1122 15.08819493884380
COSMOS 2251 DEB         
1 36451U 93036BBA 26084.16326294  .00001756  00000+0  71712-3 0  9992
2 36451  73.9541 151.3074 0185987 312.2160  46.3323 14.19171907856789
COSMOS 2251 DEB         
1 36453U 93036BBC 26086.07840786  .00002798  00000+0  65580-3 0  9996
2 36453  73.9245 314.1223 0070899 194.7630 316.7727 14.53511832859831
COSMOS 2251 DEB         
1 36459U 93036BBJ 26087.49224407  .00004379  00000+0  16727-2 0  9990
2 36459  74.0461 168.5998 0117481 239.7035 119.2449 14.27274518 93900
COSMOS 2251 DEB         
1 36470U 93036BBV 26087.58230695  .00117593  00000+0  48615-2 0  9993
2 36470  73.8332  31.7981 0026350 203.1316 156.8699 15.23098567676963
COSMOS 2251 DEB         
1 36533U 93036BCT 26086.78501392  .00001206  00000+0  31294-3 0  9998
2 36533  74.0092 277.2609 0047418  40.2134 320.2518 14.50192730860079
COSMOS 2251 DEB         
1 36539U 93036BCZ 26087.62692577  .00003105  00000+0  64871-3 0  9991
2 36539  74.0225 213.0548 0027920 326.5198  33.4201 14.60060692854920
COSMOS 2251 DEB         
1 36540U 93036BDA 26087.12460674  .00004028  00000+0  84825-3 0  9995
2 36540  74.0306 339.6020 0012347  26.1109 334.0677 14.59774705875479
COSMOS 2251 DEB         
1 36550U 93036BDL 26075.20235193  .00001792  00000+0  71657-3 0  9992
2 36550  74.0465  23.6222 0075313  51.5427 309.2447 14.27571581859290
COSMOS 2251 DEB         
1 36551U 93036BDM 26087.45311608  .00025370  00000+0  16071-2 0  9995
2 36551  73.8826 156.1450 0039077  77.4267 283.1290 15.08220695685223
COSMOS 2251 DEB         
1 36557U 93036BDT 26084.26043432  .00020771  00000+0  25363-2 0  9998
2 36557  73.9787 283.3718 0019482  56.3454 303.9579 14.83116813354141
